[{"OBJECT_NAME":"IRIDIUM 109","OBJECT_ID":"2017-003C","EPOCH":"2026-03-09T16:03:22.246272","MEAN_MOTION":14.34217553,"ECCENTRICITY":0.00020925,"INCLINATION":86.3982,"RA_OF_ASC_NODE":130.128,"ARG_OF_PERICENTER":95.091,"MEAN_ANOMALY":265.0525,"EPHEMERIS_TYPE":0,"CLASSIFICATION_TYPE":"U","NORAD_CAT_ID":41919,"ELEMENT_SET_NO":999,"REV_AT_EPOCH":47893,"BSTAR":-6.19911e-6,"MEAN_MOTION_DOT":2.0e-8,"MEAN_MOTION_DDOT":0},{"OBJECT_NAME":"UNKNOWN","OBJECT_ID":"","EPOCH":"2026-03-08T11:21:41.929344","MEAN_MOTION":13.91703847,"ECCENTRICITY":0.0226488,"INCLINATION":98.7717,"RA_OF_ASC_NODE":301.097,"ARG_OF_PERICENTER":251.1413,"MEAN_ANOMALY":106.5065,"EPHEMERIS_TYPE":0,"CLASSIFICATION_TYPE":"U","NORAD_CAT_ID":89213,"ELEMENT_SET_NO":999,"REV_AT_EPOCH":46459,"BSTAR":0.00037526,"MEAN_MOTION_DOT":5.45e-6,"MEAN_MOTION_DDOT":0}]
